ONEWEB-0349             
1 49281U 21090C   26163.30379151  .00000011  00000+0 -56093-5 0  9993
2 49281  87.9190 275.4143 0001988 101.4249 258.7108 13.20772381229180
ONEWEB-0353             
1 49282U 21090D   26163.26305561  .00000272  00000+0  69806-3 0  9995
2 49282  87.8961 290.6861 0001634  97.5586 262.5730 13.14503173226937
ONEWEB-0356             
1 49283U 21090E   26163.30210399  .00000007  00000+0 -13819-4 0  9996
2 49283  87.9190 275.4080 0002220  79.3389 280.7995 13.20773502229185
ONEWEB-0358             
1 49284U 21090F   26163.25727038  .00000126  00000+0  27918-3 0  9999
2 49284  87.9194 275.4215 0002135  96.8588 263.2788 13.20237210229907
ONEWEB-0359             
1 49285U 21090G   26163.25328293  .00000072  00000+0  14563-3 0  9992
2 49285  87.9190 275.4176 0002263 101.2044 258.9343 13.20773068229881
ONEWEB-0360             
1 49286U 21090H   26163.24318663  .00000008  00000+0 -13060-4 0  9994
2 49286  87.9191 275.4255 0002031 103.4171 256.7189 13.20773106229190
ONEWEB-0361             
1 49287U 21090J   26163.30041373  .00000003  00000+0 -24433-4 0  9994
2 49287  87.9191 275.4128 0002094  98.9689 261.1682 13.20770928229659
ONEWEB-0362             
1 49288U 21090K   26163.09749628  .00000020  00000+0  16731-4 0  9999
2 49288  87.9165 305.9921 0001832 106.5639 253.5695 13.19724589226242
ONEWEB-0363             
1 49289U 21090L   26163.23980418  .00000042  00000+0  72422-4 0  9993
2 49289  87.9191 275.4251 0002098  92.0988 268.0386 13.20770723229659
ONEWEB-0364             
1 49290U 21090M   26163.27853141  .00000056  00000+0  10618-3 0  9994
2 49290  87.9190 275.4254 0001980 101.1073 259.0283 13.20771124230798
ONEWEB-0365             
1 49291U 21090N   26163.10697935  .00000003  00000+0 -25932-4 0  9993
2 49291  87.9170 305.9784 0001777  99.6060 260.5273 13.19724407225751
ONEWEB-0366             
1 49292U 21090P   26163.25988138  .00000199  00000+0  50292-3 0  9999
2 49292  87.8957 290.6887 0001940 100.2473 259.8876 13.14502584226911
ONEWEB-0367             
1 49293U 21090Q   26163.31473105 -.00001226  00000+0 -30471-2 0  9990
2 49293  87.9190 275.4110 0001900 104.9091 255.2253 13.20777010229181
ONEWEB-0368             
1 49294U 21090R   26163.28862159  .00000038  00000+0  60510-4 0  9995
2 49294  87.9181 275.4275 0001536  80.9201 279.2106 13.20769779230330
ONEWEB-0369             
1 49295U 21090S   26163.10224368  .00000018  00000+0  11829-4 0  9998
2 49295  87.9163 305.9872 0001773  96.7839 263.3496 13.19725010225741
ONEWEB-0370             
1 49296U 21090T   26163.24822306  .00000032  00000+0  46197-4 0  9992
2 49296  87.9189 275.4243 0002139 106.7508 253.3860 13.20770264229218
