[{"OBJECT_NAME":"ONEWEB-0349","OBJECT_ID":"2021-090C","EPOCH":"2026-06-12T07:17:27.586464","MEAN_MOTION":13.20772381,"ECCENTRICITY":0.0001988,"INCLINATION":87.919,"RA_OF_ASC_NODE":275.4143,"ARG_OF_PERICENTER":101.4249,"MEAN_ANOMALY":258.7108,"EPHEMERIS_TYPE":0,"CLASSIFICATION_TYPE":"U","NORAD_CAT_ID":49281,"ELEMENT_SET_NO":999,"REV_AT_EPOCH":22918,"BSTAR":-5.609300000000001e-06,"MEAN_MOTION_DOT":1.1e-07,"MEAN_MOTION_DDOT":0.0},{"OBJECT_NAME":"ONEWEB-0353","OBJECT_ID":"2021-090D","EPOCH":"2026-06-12T06:18:48.004704","MEAN_MOTION":13.14503173,"ECCENTRICITY":0.0001634,"INCLINATION":87.8961,"RA_OF_ASC_NODE":290.6861,"ARG_OF_PERICENTER":97.5586,"MEAN_ANOMALY":262.573,"EPHEMERIS_TYPE":0,"CLASSIFICATION_TYPE":"U","NORAD_CAT_ID":49282,"ELEMENT_SET_NO":999,"REV_AT_EPOCH":22693,"BSTAR":0.00069806,"MEAN_MOTION_DOT":2.72e-06,"MEAN_MOTION_DDOT":0.0},{"OBJECT_NAME":"ONEWEB-0356","OBJECT_ID":"2021-090E","EPOCH":"2026-06-12T07:15:01.784736","MEAN_MOTION":13.20773502,"ECCENTRICITY":0.000222,"INCLINATION":87.919,"RA_OF_ASC_NODE":275.408,"ARG_OF_PERICENTER":79.3389,"MEAN_ANOMALY":280.7995,"EPHEMERIS_TYPE":0,"CLASSIFICATION_TYPE":"U","NORAD_CAT_ID":49283,"ELEMENT_SET_NO":999,"REV_AT_EPOCH":22918,"BSTAR":-1.3819000000000001e-05,"MEAN_MOTION_DOT":7e-08,"MEAN_MOTION_DDOT":0.0},{"OBJECT_NAME":"ONEWEB-0358","OBJECT_ID":"2021-090F","EPOCH":"2026-06-12T06:10:28.160832","MEAN_MOTION":13.2023721,"ECCENTRICITY":0.0002135,"INCLINATION":87.9194,"RA_OF_ASC_NODE":275.4215,"ARG_OF_PERICENTER":96.8588,"MEAN_ANOMALY":263.2788,"EPHEMERIS_TYPE":0,"CLASSIFICATION_TYPE":"U","NORAD_CAT_ID":49284,"ELEMENT_SET_NO":999,"REV_AT_EPOCH":22990,"BSTAR":0.00027917999999999997,"MEAN_MOTION_DOT":1.26e-06,"MEAN_MOTION_DDOT":0.0},{"OBJECT_NAME":"ONEWEB-0359","OBJECT_ID":"2021-090G","EPOCH":"2026-06-12T06:04:43.645152","MEAN_MOTION":13.20773068,"ECCENTRICITY":0.0002263,"INCLINATION":87.919,"RA_OF_ASC_NODE":275.4176,"ARG_OF_PERICENTER":101.2044,"MEAN_ANOMALY":258.9343,"EPHEMERIS_TYPE":0,"CLASSIFICATION_TYPE":"U","NORAD_CAT_ID":49285,"ELEMENT_SET_NO":999,"REV_AT_EPOCH":22988,"BSTAR":0.00014563,"MEAN_MOTION_DOT":7.2e-07,"MEAN_MOTION_DDOT":0.0},{"OBJECT_NAME":"ONEWEB-0360","OBJECT_ID":"2021-090H","EPOCH":"2026-06-12T05:50:11.324832","MEAN_MOTION":13.20773106,"ECCENTRICITY":0.0002031,"INCLINATION":87.9191,"RA_OF_ASC_NODE":275.4255,"ARG_OF_PERICENTER":103.4171,"MEAN_ANOMALY":256.7189,"EPHEMERIS_TYPE":0,"CLASSIFICATION_TYPE":"U","NORAD_CAT_ID":49286,"ELEMENT_SET_NO":999,"REV_AT_EPOCH":22919,"BSTAR":-1.306e-05,"MEAN_MOTION_DOT":8e-08,"MEAN_MOTION_DDOT":0.0},{"OBJECT_NAME":"ONEWEB-0361","OBJECT_ID":"2021-090J","EPOCH":"2026-06-12T07:12:35.746272","MEAN_MOTION":13.20770928,"ECCENTRICITY":0.0002094,"INCLINATION":87.9191,"RA_OF_ASC_NODE":275.4128,"ARG_OF_PERICENTER":98.9689,"MEAN_ANOMALY":261.1682,"EPHEMERIS_TYPE":0,"CLASSIFICATION_TYPE":"U","NORAD_CAT_ID":49287,"ELEMENT_SET_NO":999,"REV_AT_EPOCH":22965,"BSTAR":-2.4433e-05,"MEAN_MOTION_DOT":3e-08,"MEAN_MOTION_DDOT":0.0},{"OBJECT_NAME":"ONEWEB-0362","OBJECT_ID":"2021-090K","EPOCH":"2026-06-12T02:20:23.678592","MEAN_MOTION":13.19724589,"ECCENTRICITY":0.0001832,"INCLINATION":87.9165,"RA_OF_ASC_NODE":305.9921,"ARG_OF_PERICENTER":106.5639,"MEAN_ANOMALY":253.5695,"EPHEMERIS_TYPE":0,"CLASSIFICATION_TYPE":"U","NORAD_CAT_ID":49288,"ELEMENT_SET_NO":999,"REV_AT_EPOCH":22624,"BSTAR":1.6731e-05,"MEAN_MOTION_DOT":2e-07,"MEAN_MOTION_DDOT":0.0},{"OBJECT_NAME":"ONEWEB-0363","OBJECT_ID":"2021-090L","EPOCH":"2026-06-12T05:45:19.081152","MEAN_MOTION":13.20770723,"ECCENTRICITY":0.0002098,"INCLINATION":87.9191,"RA_OF_ASC_NODE":275.4251,"ARG_OF_PERICENTER":92.0988,"MEAN_ANOMALY":268.0386,"EPHEMERIS_TYPE":0,"CLASSIFICATION_TYPE":"U","NORAD_CAT_ID":49289,"ELEMENT_SET_NO":999,"REV_AT_EPOCH":22965,"BSTAR":7.2422e-05,"MEAN_MOTION_DOT":4.2e-07,"MEAN_MOTION_DDOT":0.0},{"OBJECT_NAME":"ONEWEB-0364","OBJECT_ID":"2021-090M","EPOCH":"2026-06-12T06:41:05.113824","MEAN_MOTION":13.20771124,"ECCENTRICITY":0.000198,"INCLINATION":87.919,"RA_OF_ASC_NODE":275.4254,"ARG_OF_PERICENTER":101.1073,"MEAN_ANOMALY":259.0283,"EPHEMERIS_TYPE":0,"CLASSIFICATION_TYPE":"U","NORAD_CAT_ID":49290,"ELEMENT_SET_NO":999,"REV_AT_EPOCH":23079,"BSTAR":0.00010618,"MEAN_MOTION_DOT":5.6e-07,"MEAN_MOTION_DDOT":0.0},{"OBJECT_NAME":"ONEWEB-0365","OBJECT_ID":"2021-090N","EPOCH":"2026-06-12T02:34:03.015840","MEAN_MOTION":13.19724407,"ECCENTRICITY":0.0001777,"INCLINATION":87.917,"RA_OF_ASC_NODE":305.9784,"ARG_OF_PERICENTER":99.606,"MEAN_ANOMALY":260.5273,"EPHEMERIS_TYPE":0,"CLASSIFICATION_TYPE":"U","NORAD_CAT_ID":49291,"ELEMENT_SET_NO":999,"REV_AT_EPOCH":22575,"BSTAR":-2.5932000000000002e-05,"MEAN_MOTION_DOT":3e-08,"MEAN_MOTION_DDOT":0.0},{"OBJECT_NAME":"ONEWEB-0366","OBJECT_ID":"2021-090P","EPOCH":"2026-06-12T06:14:13.751232","MEAN_MOTION":13.14502584,"ECCENTRICITY":0.000194,"INCLINATION":87.8957,"RA_OF_ASC_NODE":290.6887,"ARG_OF_PERICENTER":100.2473,"MEAN_ANOMALY":259.8876,"EPHEMERIS_TYPE":0,"CLASSIFICATION_TYPE":"U","NORAD_CAT_ID":49292,"ELEMENT_SET_NO":999,"REV_AT_EPOCH":22691,"BSTAR":0.00050292,"MEAN_MOTION_DOT":1.99e-06,"MEAN_MOTION_DDOT":0.0},{"OBJECT_NAME":"ONEWEB-0367","OBJECT_ID":"2021-090Q","EPOCH":"2026-06-12T07:33:12.762720","MEAN_MOTION":13.2077701,"ECCENTRICITY":0.00019,"INCLINATION":87.919,"RA_OF_ASC_NODE":275.411,"ARG_OF_PERICENTER":104.9091,"MEAN_ANOMALY":255.2253,"EPHEMERIS_TYPE":0,"CLASSIFICATION_TYPE":"U","NORAD_CAT_ID":49293,"ELEMENT_SET_NO":999,"REV_AT_EPOCH":22918,"BSTAR":-0.0030471,"MEAN_MOTION_DOT":-1.226e-05,"MEAN_MOTION_DDOT":0.0},{"OBJECT_NAME":"ONEWEB-0368","OBJECT_ID":"2021-090R","EPOCH":"2026-06-12T06:55:36.905376","MEAN_MOTION":13.20769779,"ECCENTRICITY":0.0001536,"INCLINATION":87.9181,"RA_OF_ASC_NODE":275.4275,"ARG_OF_PERICENTER":80.9201,"MEAN_ANOMALY":279.2106,"EPHEMERIS_TYPE":0,"CLASSIFICATION_TYPE":"U","NORAD_CAT_ID":49294,"ELEMENT_SET_NO":999,"REV_AT_EPOCH":23033,"BSTAR":6.051e-05,"MEAN_MOTION_DOT":3.8e-07,"MEAN_MOTION_DDOT":0.0},{"OBJECT_NAME":"ONEWEB-0369","OBJECT_ID":"2021-090S","EPOCH":"2026-06-12T02:27:13.853952","MEAN_MOTION":13.1972501,"ECCENTRICITY":0.0001773,"INCLINATION":87.9163,"RA_OF_ASC_NODE":305.9872,"ARG_OF_PERICENTER":96.7839,"MEAN_ANOMALY":263.3496,"EPHEMERIS_TYPE":0,"CLASSIFICATION_TYPE":"U","NORAD_CAT_ID":49295,"ELEMENT_SET_NO":999,"REV_AT_EPOCH":22574,"BSTAR":1.1829000000000001e-05,"MEAN_MOTION_DOT":1.8e-07,"MEAN_MOTION_DDOT":0.0},{"OBJECT_NAME":"ONEWEB-0370","OBJECT_ID":"2021-090T","EPOCH":"2026-06-12T05:57:26.472384","MEAN_MOTION":13.20770264,"ECCENTRICITY":0.0002139,"INCLINATION":87.9189,"RA_OF_ASC_NODE":275.4243,"ARG_OF_PERICENTER":106.7508,"MEAN_ANOMALY":253.386,"EPHEMERIS_TYPE":0,"CLASSIFICATION_TYPE":"U","NORAD_CAT_ID":49296,"ELEMENT_SET_NO":999,"REV_AT_EPOCH":22921,"BSTAR":4.6197e-05,"MEAN_MOTION_DOT":3.2e-07,"MEAN_MOTION_DDOT":0.0}]